HAIYANG-2D              
1 48621U 21043A   26167.28034760 -.00000184  00000+0 -92851-4 0  9996
2 48621  65.9996 306.9567 0011417 269.0799  90.8961 13.83375771256426
2021-050D               
1 48843U 21050D   26167.28462583  .00005629  00000+0  24000-3 0  9995
2 48843  97.3341 243.3405 0004015 265.7184  94.3594 15.23324623278822
TYVAK-0173              
1 48892U 21059P   26167.18486531  .00001502  00000+0  19380-3 0  9997
2 48892  96.0084 243.7905 0010194  42.6771 317.5237 14.81888093268095
MANDRAKE 2 ABLE         
1 48907U 21059AE  26167.27303513  .00017707  00000+0  26585-3 0  9991
2 48907  97.7026 356.9876 0004492   9.4485 350.6852 15.54956834276985
MANDRAKE 2 BAKER        
1 48908U 21059AF  26167.01487275  .00024264  00000+0  30700-3 0  9992
2 48908  97.6996 359.5729 0002974  12.1138 348.0188 15.59510583277117
PACE-1                  
1 48909U 21059AG  26167.07738766  .00080901  00000+0  44152-3 0  9999
2 48909  97.6749   5.0935 0000982 271.5376  88.5778 15.79671983277629
YAM-3                   
1 48915U 21059AN  26167.22719870  .00009858  00000+0  18695-3 0  9993
2 48915  97.6987 354.1191 0005036  13.9503 346.1885 15.48538294276845
FARADAY_PHOENIX         
1 48924U 21059AX  26167.07489067  .00125674  00000+0  72799-3 0  9998
2 48924  97.6795   4.9796 0002833 304.7672  55.3327 15.78206981277482
DEMO8 (TENZING)         
1 48951U 21059CA  26167.27602630  .00017017  00000+0  25541-3 0  9997
2 48951  97.7016   0.6257 0006271 359.6101   0.5147 15.54963836277160
NAPA-2                  
1 48963U 21059CN  26167.31933284  .00320171  45377-4  62367-3 0  9993
2 48963  97.6639   6.3838 0003289 237.4665 122.6295 16.00259761277678
FENGYUN 3E              
1 49008U 21062A   26167.28562662  .00000243  00000+0  13529-3 0  9992
2 49008  98.7484 170.7036 0002832  87.2113 272.9387 14.19904591256457
ISS (NAUKA)             
1 49044U 21066A   26167.09292088  .00007536  00000+0  14355-3 0  9997
2 49044  51.6337 305.5091 0004805 191.3253 168.7628 15.49253146571148
STARLINK-3100           
1 49144U 21082Q   26167.10564027  .00000177  00000+0  22598-4 0  9996
2 49144  70.0000  46.3065 0002988 270.2249  89.8567 14.98326642260723
CUTE                    
1 49263U 21088D   26167.24534176  .00142719  97942-5  41382-3 0  9998
2 49263  97.4157 266.4478 0007691 229.6292 130.4311 15.92939342262405
2021-091B               
1 49316U 21091B   26167.26929081  .00001421  00000+0  71931-4 0  9997
2 49316  97.4463 354.8577 0014612  48.2888 311.9594 15.18547089258846
SDGSAT 1                
1 49387U 21100A   26167.30916632  .00002823  00000+0  13436-3 0  9991
2 49387  97.2633 214.2917 0006434 304.0133  56.0491 15.19926731255786
TEIKYOSAT-4 (OORURI)    
1 49396U 21102B   26167.32518978  .00001368  00000+0  89042-4 0  9996
2 49396  97.3672 196.8422 0010527 300.2729  59.7458 15.09505869252596
Z-SAT                   
1 49399U 21102E   26167.34119647  .00002628  00000+0  13121-3 0  9995
2 49399  97.3320 202.6894 0014844 247.9242 112.0417 15.18258505253312
HIBARI                  
1 49400U 21102F   26167.09139119  .00009548  00000+0  31368-3 0  9997
2 49400  97.3234 213.0071 0011278 195.6037 164.4859 15.31712161254029
KOSEN-1                 
1 49402U 21102H   26167.09304086  .00006035  00000+0  23118-3 0  9998
2 49402  97.3180 209.2714 0013073 204.4392 155.6229 15.26822838253850
GLOBAL-14               
1 49469U 21106A   26167.05543580  .00022875  00000+0  39230-3 0  9997
2 49469  42.0043 297.8062 0015944  10.9627 349.1561 15.50554066257953
GAOFEN-3 02             
1 49495U 21109A   26167.28575301  .00000097  00000+0  42502-4 0  9999
2 49495  98.4081 175.3952 0003003  19.6327 340.4978 14.42217261240189
GLOBAL-12               
1 49772U 21115BA  26167.30156176  .00027636  00000+0  43271-3 0  9993
2 49772  53.1955  48.7994 0003143  67.5060 292.6284 15.53552078255764
GLOBAL-13               
1 49773U 21115BB  26167.02078838  .00016047  00000+0  33167-3 0  9998
2 49773  53.1984  60.1328 0003855 107.1655 252.9775 15.46003457255585
GLOBAL-17               
1 49949U 21120A   26166.99491566  .00023325  00000+0  37710-3 0  9996
2 49949  41.9956  56.3988 0015560 249.2988 110.6188 15.52200339254713
GLOBAL-16               
1 49950U 21120B   26167.00674745  .00020995  00000+0  36659-3 0  9994
2 49950  41.9966  60.0373 0013428 241.0870 118.8627 15.50127782254667
XW-3 (CAS-9)            
1 50466U 21131B   26167.29100005  .00000460  00000+0  15581-3 0  9990
2 50466  98.4987 259.6853 0005370  98.8882 261.2915 14.41357076234984
ION SCV-004             
1 50993U 22002K   26167.18857880  .00004574  00000+0  15784-3 0  9996
2 50993  97.2834 224.8659 0007297  11.4053 348.7352 15.30444252245144
ETV-A1                  
1 51060U 22002CE  26167.29930619  .00009537  00000+0  23579-3 0  9991
2 51060  97.2879 233.6070 0004613   6.7361 353.3947 15.40667632245706
BRO-5                   
1 51061U 22002CF  26167.28092193  .00024953  00000+0  48965-3 0  9992
2 51061  97.2998 240.9417 0003721 334.8554  25.2515 15.47320636246112
