OBJECT_NAME,OBJECT_ID,EPOCH,MEAN_MOTION,ECCENTRICITY,INCLINATION,RA_OF_ASC_NODE,ARG_OF_PERICENTER,MEAN_ANOMALY,EPHEMERIS_TYPE,CLASSIFICATION_TYPE,NORAD_CAT_ID,ELEMENT_SET_NO,REV_AT_EPOCH,BSTAR,MEAN_MOTION_DOT,MEAN_MOTION_DDOT
HAIYANG-2D,2021-043A,2026-06-16T06:43:42.032640,13.83375771,.00114173,65.9996,306.9567,269.0799,90.8961,0,U,48621,999,25642,-.92851256E-4,-.184E-5,0
2021-050D,2021-050D,2026-06-16T06:49:51.671712,15.23324623,.00040159,97.3341,243.3405,265.7184,94.3594,0,U,48843,999,27882,.23999658E-3,.5629E-4,0
TYVAK-0173,2021-059P,2026-06-16T04:26:12.362784,14.81888093,.00101949,96.0084,243.7905,42.6771,317.5237,0,U,48892,999,26809,.1937974E-3,.1502E-4,0
MANDRAKE 2 ABLE,2021-059AE,2026-06-16T06:33:10.235232,15.54956834,.00044921,97.7026,356.9876,9.4485,350.6852,0,U,48907,999,27698,.26585122E-3,.17707E-3,0
MANDRAKE 2 BAKER,2021-059AF,2026-06-16T00:21:25.005600,15.59510583,.00029748,97.6996,359.5729,12.1138,348.0188,0,U,48908,999,27711,.30699808E-3,.24264E-3,0
PACE-1,2021-059AG,2026-06-16T01:51:26.293824,15.79671983,.0000982,97.6749,5.0935,271.5376,88.5778,0,U,48909,999,27762,.44151876E-3,.80901E-3,0
YAM-3,2021-059AN,2026-06-16T05:27:09.967680,15.48538294,.00050365,97.6987,354.1191,13.9503,346.1885,0,U,48915,999,27684,.1869502E-3,.9858E-4,0
FARADAY_PHOENIX,2021-059AX,2026-06-16T01:47:50.553888,15.78206981,.00028333,97.6795,4.9796,304.7672,55.3327,0,U,48924,999,27748,.72798767E-3,.125674E-2,0
DEMO8 (TENZING),2021-059CA,2026-06-16T06:37:28.672320,15.54963836,.00062716,97.7016,0.6257,359.6101,0.5147,0,U,48951,999,27716,.25540797E-3,.17017E-3,0
NAPA-2,2021-059CN,2026-06-16T07:39:50.357376,16.00259761,.00032894,97.6639,6.3838,237.4665,122.6295,0,U,48963,999,27767,.62366714E-3,.320171E-2,.45377005E-4
FENGYUN 3E,2021-062A,2026-06-16T06:51:18.139968,14.19904591,.00028324,98.7484,170.7036,87.2113,272.9387,0,U,49008,999,25645,.1352882E-3,.243E-5,0
ISS (NAUKA),2021-066A,2026-06-16T02:13:48.364032,15.49253146,.00048059,51.6337,305.5091,191.3253,168.7628,0,U,49044,999,57114,.14354606E-3,.7536E-4,0
STARLINK-3100,2021-082Q,2026-06-16T02:32:07.319328,14.98326642,.00029886,70.0000,46.3065,270.2249,89.8567,0,U,49144,999,26072,.22598357E-4,.177E-5,0
CUTE,2021-088D,2026-06-16T05:53:17.528064,15.92939342,.0007691,97.4157,266.4478,229.6292,130.4311,0,U,49263,999,26240,.41381588E-3,.142719E-2,.979424E-5
2021-091B,2021-091B,2026-06-16T06:27:46.725984,15.18547089,.00146127,97.4463,354.8577,48.2888,311.9594,0,U,49316,999,25884,.7193121E-4,.1421E-4,0
SDGSAT 1,2021-100A,2026-06-16T07:25:11.970048,15.19926731,.00064344,97.2633,214.2917,304.0133,56.0491,0,U,49387,999,25578,.13435581E-3,.2823E-4,0
TEIKYOSAT-4 (OORURI),2021-102B,2026-06-16T07:48:16.396992,15.09505869,.00105275,97.3672,196.8422,300.2729,59.7458,0,U,49396,999,25259,.89042168E-4,.1368E-4,0
Z-SAT,2021-102E,2026-06-16T08:11:19.375008,15.18258505,.00148444,97.3320,202.6894,247.9242,112.0417,0,U,49399,999,25331,.13121455E-3,.2628E-4,0
HIBARI,2021-102F,2026-06-16T02:11:36.198816,15.31712161,.0011278,97.3234,213.0071,195.6037,164.4859,0,U,49400,999,25402,.31368286E-3,.9548E-4,0
KOSEN-1,2021-102H,2026-06-16T02:13:58.730304,15.26822838,.00130737,97.3180,209.2714,204.4392,155.6229,0,U,49402,999,25385,.2311844E-3,.6035E-4,0
GLOBAL-14,2021-106A,2026-06-16T01:19:49.653120,15.50554066,.00159442,42.0043,297.8062,10.9627,349.1561,0,U,49469,999,25795,.39230443E-3,.22875E-3,0
GAOFEN-3 02,2021-109A,2026-06-16T06:51:29.060064,14.42217261,.0003003,98.4081,175.3952,19.6327,340.4978,0,U,49495,999,24018,.42501506E-4,.97E-6,0
GLOBAL-12,2021-115BA,2026-06-16T07:14:14.936064,15.53552078,.00031437,53.1955,48.7994,67.5060,292.6284,0,U,49772,999,25576,.43271261E-3,.27636E-3,0
GLOBAL-13,2021-115BB,2026-06-16T00:29:56.116032,15.46003457,.00038554,53.1984,60.1328,107.1655,252.9775,0,U,49773,999,25558,.33166607E-3,.16047E-3,0
GLOBAL-17,2021-120A,2026-06-15T23:52:40.713024,15.52200339,.00155604,41.9956,56.3988,249.2988,110.6188,0,U,49949,999,25471,.37710107E-3,.23325E-3,0
GLOBAL-16,2021-120B,2026-06-16T00:09:42.979680,15.50127782,.00134286,41.9966,60.0373,241.0870,118.8627,0,U,49950,999,25466,.36658959E-3,.20995E-3,0
XW-3 (CAS-9),2021-131B,2026-06-16T06:59:02.404320,14.41357076,.000537,98.4987,259.6853,98.8882,261.2915,0,U,50466,999,23498,.15581239E-3,.46E-5,0
ION SCV-004,2022-002K,2026-06-16T04:31:33.208320,15.30444252,.00072976,97.2834,224.8659,11.4053,348.7352,0,U,50993,999,24514,.15784334E-3,.4574E-4,0
ETV-A1,2022-002CE,2026-06-16T07:11:00.054816,15.40667632,.00046132,97.2879,233.6070,6.7361,353.3947,0,U,51060,999,24570,.23579223E-3,.9537E-4,0
BRO-5,2022-002CF,2026-06-16T06:44:31.654752,15.47320636,.00037218,97.2998,240.9417,334.8554,25.2515,0,U,51061,999,24611,.48965077E-3,.24953E-3,0
